ONEWEB-0120             
1 47266U 20100J   25169.42523051 -.00000390  00000+0 -11201-2 0  9993
2 47266  87.8886  63.0293 0002010  76.6158 283.5194 13.12442007217018
ONEWEB-0121             
1 47267U 20100K   25169.41376055 -.00000222  00000+0 -65295-3 0  9990
2 47267  87.8880  63.0037 0001887  83.0556 277.0787 13.12443513216922
ONEWEB-0122             
1 47268U 20100L   25169.25626984 -.00000159  00000+0 -47698-3 0  9998
2 47268  87.8881  63.0400 0002023  80.2893 279.8464 13.12441150216819
ONEWEB-0123             
1 47269U 20100M   25169.40401518  .00000036  00000+0  64475-4 0  9995
2 47269  87.8883  63.0375 0001890  75.4522 284.6816 13.12440419216978
ONEWEB-0124             
1 47270U 20100N   25169.46890274  .00000360  00000+0  96665-3 0  9999
2 47270  87.8884  63.0226 0001679  81.4394 278.6925 13.12441346216867
ONEWEB-0125             
1 47271U 20100P   25169.44618604  .00000114  00000+0  28016-3 0  9995
2 47271  87.8888  62.9898 0001642  72.6029 287.5279 13.12442852216923
ONEWEB-0126             
1 47272U 20100Q   25169.46743455  .00000407  00000+0  10968-2 0  9992
2 47272  87.8904  62.9968 0001958  77.1432 282.9915 13.12443877216990
ONEWEB-0127             
1 47273U 20100R   25169.43320119 -.00000336  00000+0 -97041-3 0  9999
2 47273  87.8885  63.0253 0002045  79.5099 280.6260 13.12442365217014
